<?xml version="1.0" encoding="UTF-8"?>
<gpx version="1.1" creator="follow-track sample" xmlns="http://www.topografix.com/GPX/1/1">
  <metadata><name>Ruta de ejemplo Collserola</name></metadata>
  <wpt lat="41.418000" lon="2.127800"><name>Aparcamiento</name></wpt>
  <trk><name>Ruta de ejemplo Collserola</name><trkseg>
      <trkpt lat="41.418000" lon="2.127800"><ele>180.0</ele><time>2026-05-10T08:00:00Z</time></trkpt>
      <trkpt lat="41.418546" lon="2.127791"><ele>185.3</ele><time>2026-05-10T08:00:12Z</time></trkpt>
      <trkpt lat="41.419089" lon="2.127763"><ele>190.6</ele><time>2026-05-10T08:00:24Z</time></trkpt>
      <trkpt lat="41.419628" lon="2.127716"><ele>195.8</ele><time>2026-05-10T08:00:36Z</time></trkpt>
      <trkpt lat="41.420159" lon="2.127652"><ele>200.7</ele><time>2026-05-10T08:00:48Z</time></trkpt>
      <trkpt lat="41.420680" lon="2.127569"><ele>205.4</ele><time>2026-05-10T08:01:00Z</time></trkpt>
      <trkpt lat="41.421189" lon="2.127469"><ele>209.9</ele><time>2026-05-10T08:01:12Z</time></trkpt>
      <trkpt lat="41.421684" lon="2.127352"><ele>214.0</ele><time>2026-05-10T08:01:24Z</time></trkpt>
      <trkpt lat="41.422162" lon="2.127219"><ele>217.7</ele><time>2026-05-10T08:01:36Z</time></trkpt>
      <trkpt lat="41.422624" lon="2.127069"><ele>221.1</ele><time>2026-05-10T08:01:48Z</time></trkpt>
      <trkpt lat="41.423066" lon="2.126905"><ele>224.0</ele><time>2026-05-10T08:02:00Z</time></trkpt>
      <trkpt lat="41.423488" lon="2.126726"><ele>226.5</ele><time>2026-05-10T08:02:12Z</time></trkpt>
      <trkpt lat="41.423889" lon="2.126534"><ele>228.6</ele><time>2026-05-10T08:02:24Z</time></trkpt>
      <trkpt lat="41.424269" lon="2.126329"><ele>230.2</ele><time>2026-05-10T08:02:36Z</time></trkpt>
      <trkpt lat="41.424626" lon="2.126112"><ele>231.5</ele><time>2026-05-10T08:02:48Z</time></trkpt>
      <trkpt lat="41.424961" lon="2.125885"><ele>232.4</ele><time>2026-05-10T08:03:00Z</time></trkpt>
      <trkpt lat="41.425274" lon="2.125648"><ele>233.0</ele><time>2026-05-10T08:03:12Z</time></trkpt>
      <trkpt lat="41.425566" lon="2.125403"><ele>233.3</ele><time>2026-05-10T08:03:24Z</time></trkpt>
      <trkpt lat="41.425837" lon="2.125150"><ele>233.3</ele><time>2026-05-10T08:03:36Z</time></trkpt>
      <trkpt lat="41.426088" lon="2.124891"><ele>233.2</ele><time>2026-05-10T08:03:48Z</time></trkpt>
      <trkpt lat="41.426322" lon="2.124626"><ele>232.9</ele><time>2026-05-10T08:04:00Z</time></trkpt>
      <trkpt lat="41.426538" lon="2.124357"><ele>232.5</ele><time>2026-05-10T08:04:12Z</time></trkpt>
      <trkpt lat="41.426740" lon="2.124085"><ele>232.2</ele><time>2026-05-10T08:04:24Z</time></trkpt>
      <trkpt lat="41.426928" lon="2.123811"><ele>231.8</ele><time>2026-05-10T08:04:36Z</time></trkpt>
      <trkpt lat="41.427105" lon="2.123536"><ele>231.6</ele><time>2026-05-10T08:04:48Z</time></trkpt>
      <trkpt lat="41.427274" lon="2.123262"><ele>231.6</ele><time>2026-05-10T08:05:00Z</time></trkpt>
      <trkpt lat="41.427436" lon="2.122988"><ele>231.8</ele><time>2026-05-10T08:05:12Z</time></trkpt>
      <trkpt lat="41.427593" lon="2.122716"><ele>232.2</ele><time>2026-05-10T08:05:24Z</time></trkpt>
      <trkpt lat="41.427748" lon="2.122447"><ele>232.9</ele><time>2026-05-10T08:05:36Z</time></trkpt>
      <trkpt lat="41.427904" lon="2.122181"><ele>234.0</ele><time>2026-05-10T08:05:48Z</time></trkpt>
      <trkpt lat="41.428062" lon="2.121920"><ele>235.4</ele><time>2026-05-10T08:06:00Z</time></trkpt>
      <trkpt lat="41.428226" lon="2.121665"><ele>237.2</ele><time>2026-05-10T08:06:12Z</time></trkpt>
      <trkpt lat="41.428396" lon="2.121414"><ele>239.4</ele><time>2026-05-10T08:06:24Z</time></trkpt>
      <trkpt lat="41.428575" lon="2.121171"><ele>241.9</ele><time>2026-05-10T08:06:36Z</time></trkpt>
      <trkpt lat="41.428765" lon="2.120934"><ele>244.8</ele><time>2026-05-10T08:06:48Z</time></trkpt>
      <trkpt lat="41.428967" lon="2.120704"><ele>248.1</ele><time>2026-05-10T08:07:00Z</time></trkpt>
      <trkpt lat="41.429183" lon="2.120482"><ele>251.6</ele><time>2026-05-10T08:07:12Z</time></trkpt>
      <trkpt lat="41.429414" lon="2.120268"><ele>255.4</ele><time>2026-05-10T08:07:24Z</time></trkpt>
      <trkpt lat="41.429661" lon="2.120061"><ele>259.4</ele><time>2026-05-10T08:07:36Z</time></trkpt>
      <trkpt lat="41.429924" lon="2.119863"><ele>263.6</ele><time>2026-05-10T08:07:48Z</time></trkpt>
      <trkpt lat="41.430204" lon="2.119672"><ele>267.9</ele><time>2026-05-10T08:08:00Z</time></trkpt>
      <trkpt lat="41.430501" lon="2.119489"><ele>272.3</ele><time>2026-05-10T08:08:12Z</time></trkpt>
      <trkpt lat="41.430814" lon="2.119314"><ele>276.6</ele><time>2026-05-10T08:08:24Z</time></trkpt>
      <trkpt lat="41.431144" lon="2.119145"><ele>280.9</ele><time>2026-05-10T08:08:36Z</time></trkpt>
      <trkpt lat="41.431489" lon="2.118984"><ele>285.0</ele><time>2026-05-10T08:08:48Z</time></trkpt>
      <trkpt lat="41.431848" lon="2.118829"><ele>288.9</ele><time>2026-05-10T08:09:00Z</time></trkpt>
      <trkpt lat="41.432221" lon="2.118680"><ele>292.6</ele><time>2026-05-10T08:09:12Z</time></trkpt>
      <trkpt lat="41.432605" lon="2.118537"><ele>296.0</ele><time>2026-05-10T08:09:24Z</time></trkpt>
      <trkpt lat="41.432998" lon="2.118397"><ele>299.0</ele><time>2026-05-10T08:09:36Z</time></trkpt>
      <trkpt lat="41.433400" lon="2.118262"><ele>301.6</ele><time>2026-05-10T08:09:48Z</time></trkpt>
      <trkpt lat="41.433807" lon="2.118130"><ele>303.8</ele><time>2026-05-10T08:10:00Z</time></trkpt>
      <trkpt lat="41.434218" lon="2.118000"><ele>305.6</ele><time>2026-05-10T08:10:12Z</time></trkpt>
      <trkpt lat="41.434630" lon="2.117871"><ele>306.9</ele><time>2026-05-10T08:10:24Z</time></trkpt>
      <trkpt lat="41.435040" lon="2.117743"><ele>307.7</ele><time>2026-05-10T08:10:36Z</time></trkpt>
      <trkpt lat="41.435446" lon="2.117615"><ele>308.1</ele><time>2026-05-10T08:10:48Z</time></trkpt>
      <trkpt lat="41.435847" lon="2.117484"><ele>308.0</ele><time>2026-05-10T08:11:00Z</time></trkpt>
      <trkpt lat="41.436238" lon="2.117352"><ele>307.5</ele><time>2026-05-10T08:11:12Z</time></trkpt>
      <trkpt lat="41.436618" lon="2.117216"><ele>306.6</ele><time>2026-05-10T08:11:24Z</time></trkpt>
      <trkpt lat="41.436984" lon="2.117076"><ele>305.4</ele><time>2026-05-10T08:11:36Z</time></trkpt>
      <trkpt lat="41.437334" lon="2.116930"><ele>303.9</ele><time>2026-05-10T08:11:48Z</time></trkpt>
      <trkpt lat="41.437667" lon="2.116778"><ele>302.1</ele><time>2026-05-10T08:12:00Z</time></trkpt>
      <trkpt lat="41.437980" lon="2.116618"><ele>300.1</ele><time>2026-05-10T08:12:12Z</time></trkpt>
      <trkpt lat="41.438271" lon="2.116451"><ele>298.0</ele><time>2026-05-10T08:12:24Z</time></trkpt>
      <trkpt lat="41.438539" lon="2.116274"><ele>295.8</ele><time>2026-05-10T08:12:36Z</time></trkpt>
      <trkpt lat="41.438783" lon="2.116087"><ele>293.6</ele><time>2026-05-10T08:12:48Z</time></trkpt>
      <trkpt lat="41.439002" lon="2.115890"><ele>291.5</ele><time>2026-05-10T08:13:00Z</time></trkpt>
      <trkpt lat="41.439195" lon="2.115681"><ele>289.4</ele><time>2026-05-10T08:13:12Z</time></trkpt>
      <trkpt lat="41.439362" lon="2.115461"><ele>287.6</ele><time>2026-05-10T08:13:24Z</time></trkpt>
      <trkpt lat="41.439502" lon="2.115227"><ele>285.9</ele><time>2026-05-10T08:13:36Z</time></trkpt>
      <trkpt lat="41.439617" lon="2.114980"><ele>284.5</ele><time>2026-05-10T08:13:48Z</time></trkpt>
      <trkpt lat="41.439705" lon="2.114720"><ele>283.4</ele><time>2026-05-10T08:14:00Z</time></trkpt>
      <trkpt lat="41.439769" lon="2.114446"><ele>282.6</ele><time>2026-05-10T08:14:12Z</time></trkpt>
      <trkpt lat="41.439809" lon="2.114158"><ele>282.1</ele><time>2026-05-10T08:14:24Z</time></trkpt>
      <trkpt lat="41.439825" lon="2.113855"><ele>282.0</ele><time>2026-05-10T08:14:36Z</time></trkpt>
      <trkpt lat="41.439821" lon="2.113537"><ele>282.2</ele><time>2026-05-10T08:14:48Z</time></trkpt>
      <trkpt lat="41.439797" lon="2.113205"><ele>282.8</ele><time>2026-05-10T08:15:00Z</time></trkpt>
      <trkpt lat="41.439756" lon="2.112858"><ele>283.7</ele><time>2026-05-10T08:15:12Z</time></trkpt>
      <trkpt lat="41.439699" lon="2.112497"><ele>285.0</ele><time>2026-05-10T08:15:24Z</time></trkpt>
      <trkpt lat="41.439628" lon="2.112122"><ele>286.5</ele><time>2026-05-10T08:15:36Z</time></trkpt>
      <trkpt lat="41.439547" lon="2.111733"><ele>288.2</ele><time>2026-05-10T08:15:48Z</time></trkpt>
      <trkpt lat="41.439457" lon="2.111331"><ele>290.1</ele><time>2026-05-10T08:16:00Z</time></trkpt>
      <trkpt lat="41.439360" lon="2.110916"><ele>292.1</ele><time>2026-05-10T08:16:12Z</time></trkpt>
      <trkpt lat="41.439260" lon="2.110489"><ele>294.2</ele><time>2026-05-10T08:16:24Z</time></trkpt>
      <trkpt lat="41.439158" lon="2.110050"><ele>296.3</ele><time>2026-05-10T08:16:36Z</time></trkpt>
      <trkpt lat="41.439057" lon="2.109601"><ele>298.4</ele><time>2026-05-10T08:16:48Z</time></trkpt>
      <trkpt lat="41.438960" lon="2.109141"><ele>300.3</ele><time>2026-05-10T08:17:00Z</time></trkpt>
      <trkpt lat="41.438867" lon="2.108672"><ele>302.1</ele><time>2026-05-10T08:17:12Z</time></trkpt>
      <trkpt lat="41.438782" lon="2.108195"><ele>303.6</ele><time>2026-05-10T08:17:24Z</time></trkpt>
      <trkpt lat="41.438705" lon="2.107711"><ele>304.9</ele><time>2026-05-10T08:17:36Z</time></trkpt>
      <trkpt lat="41.438639" lon="2.107221"><ele>305.8</ele><time>2026-05-10T08:17:48Z</time></trkpt>
      <trkpt lat="41.438584" lon="2.106726"><ele>306.3</ele><time>2026-05-10T08:18:00Z</time></trkpt>
      <trkpt lat="41.438543" lon="2.106227"><ele>306.5</ele><time>2026-05-10T08:18:12Z</time></trkpt>
      <trkpt lat="41.438515" lon="2.105724"><ele>306.2</ele><time>2026-05-10T08:18:24Z</time></trkpt>
      <trkpt lat="41.438501" lon="2.105221"><ele>305.4</ele><time>2026-05-10T08:18:36Z</time></trkpt>
      <trkpt lat="41.438502" lon="2.104716"><ele>304.2</ele><time>2026-05-10T08:18:48Z</time></trkpt>
      <trkpt lat="41.438518" lon="2.104213"><ele>302.5</ele><time>2026-05-10T08:19:00Z</time></trkpt>
      <trkpt lat="41.438547" lon="2.103711"><ele>300.4</ele><time>2026-05-10T08:19:12Z</time></trkpt>
      <trkpt lat="41.438590" lon="2.103212"><ele>297.8</ele><time>2026-05-10T08:19:24Z</time></trkpt>
      <trkpt lat="41.438646" lon="2.102717"><ele>294.8</ele><time>2026-05-10T08:19:36Z</time></trkpt>
      <trkpt lat="41.438714" lon="2.102228"><ele>291.5</ele><time>2026-05-10T08:19:48Z</time></trkpt>
      <trkpt lat="41.438792" lon="2.101745"><ele>287.9</ele><time>2026-05-10T08:20:00Z</time></trkpt>
      <trkpt lat="41.438878" lon="2.101269"><ele>283.9</ele><time>2026-05-10T08:20:12Z</time></trkpt>
      <trkpt lat="41.438972" lon="2.100801"><ele>279.8</ele><time>2026-05-10T08:20:24Z</time></trkpt>
      <trkpt lat="41.439070" lon="2.100343"><ele>275.5</ele><time>2026-05-10T08:20:36Z</time></trkpt>
      <trkpt lat="41.439171" lon="2.099894"><ele>271.1</ele><time>2026-05-10T08:20:48Z</time></trkpt>
      <trkpt lat="41.439273" lon="2.099457"><ele>266.7</ele><time>2026-05-10T08:21:00Z</time></trkpt>
      <trkpt lat="41.439373" lon="2.099031"><ele>262.3</ele><time>2026-05-10T08:21:12Z</time></trkpt>
      <trkpt lat="41.439468" lon="2.098618"><ele>258.0</ele><time>2026-05-10T08:21:24Z</time></trkpt>
      <trkpt lat="41.439558" lon="2.098217"><ele>253.9</ele><time>2026-05-10T08:21:36Z</time></trkpt>
      <trkpt lat="41.439638" lon="2.097830"><ele>249.9</ele><time>2026-05-10T08:21:48Z</time></trkpt>
      <trkpt lat="41.439707" lon="2.097457"><ele>246.2</ele><time>2026-05-10T08:22:00Z</time></trkpt>
      <trkpt lat="41.439762" lon="2.097098"><ele>242.8</ele><time>2026-05-10T08:22:12Z</time></trkpt>
      <trkpt lat="41.439801" lon="2.096753"><ele>239.7</ele><time>2026-05-10T08:22:24Z</time></trkpt>
      <trkpt lat="41.439823" lon="2.096422"><ele>237.0</ele><time>2026-05-10T08:22:36Z</time></trkpt>
      <trkpt lat="41.439824" lon="2.096107"><ele>234.6</ele><time>2026-05-10T08:22:48Z</time></trkpt>
      <trkpt lat="41.439805" lon="2.095806"><ele>232.7</ele><time>2026-05-10T08:23:00Z</time></trkpt>
      <trkpt lat="41.439762" lon="2.095519"><ele>231.1</ele><time>2026-05-10T08:23:12Z</time></trkpt>
      <trkpt lat="41.439696" lon="2.095246"><ele>229.8</ele><time>2026-05-10T08:23:24Z</time></trkpt>
      <trkpt lat="41.439604" lon="2.094988"><ele>228.9</ele><time>2026-05-10T08:23:36Z</time></trkpt>
      <trkpt lat="41.439486" lon="2.094743"><ele>228.3</ele><time>2026-05-10T08:23:48Z</time></trkpt>
      <trkpt lat="41.439343" lon="2.094511"><ele>228.0</ele><time>2026-05-10T08:24:00Z</time></trkpt>
      <trkpt lat="41.439172" lon="2.094292"><ele>227.9</ele><time>2026-05-10T08:24:12Z</time></trkpt>
      <trkpt lat="41.438976" lon="2.094085"><ele>228.1</ele><time>2026-05-10T08:24:24Z</time></trkpt>
      <trkpt lat="41.438754" lon="2.093889"><ele>228.3</ele><time>2026-05-10T08:24:36Z</time></trkpt>
      <trkpt lat="41.438507" lon="2.093704"><ele>228.6</ele><time>2026-05-10T08:24:48Z</time></trkpt>
      <trkpt lat="41.438236" lon="2.093528"><ele>228.9</ele><time>2026-05-10T08:25:00Z</time></trkpt>
      <trkpt lat="41.437942" lon="2.093361"><ele>229.2</ele><time>2026-05-10T08:25:12Z</time></trkpt>
      <trkpt lat="41.437626" lon="2.093203"><ele>229.4</ele><time>2026-05-10T08:25:24Z</time></trkpt>
      <trkpt lat="41.437292" lon="2.093052"><ele>229.4</ele><time>2026-05-10T08:25:36Z</time></trkpt>
      <trkpt lat="41.436939" lon="2.092907"><ele>229.2</ele><time>2026-05-10T08:25:48Z</time></trkpt>
      <trkpt lat="41.436571" lon="2.092767"><ele>228.7</ele><time>2026-05-10T08:26:00Z</time></trkpt>
      <trkpt lat="41.436189" lon="2.092631"><ele>227.9</ele><time>2026-05-10T08:26:12Z</time></trkpt>
      <trkpt lat="41.435797" lon="2.092499"><ele>226.7</ele><time>2026-05-10T08:26:24Z</time></trkpt>
      <trkpt lat="41.435396" lon="2.092369"><ele>225.1</ele><time>2026-05-10T08:26:36Z</time></trkpt>
      <trkpt lat="41.434989" lon="2.092241"><ele>223.2</ele><time>2026-05-10T08:26:48Z</time></trkpt>
      <trkpt lat="41.434578" lon="2.092113"><ele>220.8</ele><time>2026-05-10T08:27:00Z</time></trkpt>
      <trkpt lat="41.434166" lon="2.091984"><ele>218.0</ele><time>2026-05-10T08:27:12Z</time></trkpt>
      <trkpt lat="41.433756" lon="2.091854"><ele>214.8</ele><time>2026-05-10T08:27:24Z</time></trkpt>
      <trkpt lat="41.433349" lon="2.091721"><ele>211.2</ele><time>2026-05-10T08:27:36Z</time></trkpt>
      <trkpt lat="41.432949" lon="2.091585"><ele>207.2</ele><time>2026-05-10T08:27:48Z</time></trkpt>
      <trkpt lat="41.432556" lon="2.091446"><ele>202.8</ele><time>2026-05-10T08:28:00Z</time></trkpt>
      <trkpt lat="41.432174" lon="2.091301"><ele>198.2</ele><time>2026-05-10T08:28:12Z</time></trkpt>
      <trkpt lat="41.431803" lon="2.091152"><ele>193.3</ele><time>2026-05-10T08:28:24Z</time></trkpt>
      <trkpt lat="41.431445" lon="2.090996"><ele>188.2</ele><time>2026-05-10T08:28:36Z</time></trkpt>
      <trkpt lat="41.431102" lon="2.090834"><ele>183.0</ele><time>2026-05-10T08:28:48Z</time></trkpt>
      <trkpt lat="41.430774" lon="2.090665"><ele>177.7</ele><time>2026-05-10T08:29:00Z</time></trkpt>
      <trkpt lat="41.430463" lon="2.090489"><ele>172.3</ele><time>2026-05-10T08:29:12Z</time></trkpt>
      <trkpt lat="41.430168" lon="2.090305"><ele>167.0</ele><time>2026-05-10T08:29:24Z</time></trkpt>
      <trkpt lat="41.429890" lon="2.090113"><ele>161.8</ele><time>2026-05-10T08:29:36Z</time></trkpt>
      <trkpt lat="41.429629" lon="2.089913"><ele>156.8</ele><time>2026-05-10T08:29:48Z</time></trkpt>
      <trkpt lat="41.429384" lon="2.089706"><ele>152.0</ele><time>2026-05-10T08:30:00Z</time></trkpt>
      <trkpt lat="41.429155" lon="2.089491"><ele>147.5</ele><time>2026-05-10T08:30:12Z</time></trkpt>
      <trkpt lat="41.428941" lon="2.089267"><ele>143.3</ele><time>2026-05-10T08:30:24Z</time></trkpt>
      <trkpt lat="41.428741" lon="2.089037"><ele>139.4</ele><time>2026-05-10T08:30:36Z</time></trkpt>
      <trkpt lat="41.428552" lon="2.088799"><ele>136.0</ele><time>2026-05-10T08:30:48Z</time></trkpt>
      <trkpt lat="41.428374" lon="2.088555"><ele>132.9</ele><time>2026-05-10T08:31:00Z</time></trkpt>
      <trkpt lat="41.428205" lon="2.088304"><ele>130.3</ele><time>2026-05-10T08:31:12Z</time></trkpt>
      <trkpt lat="41.428042" lon="2.088047"><ele>128.1</ele><time>2026-05-10T08:31:24Z</time></trkpt>
      <trkpt lat="41.427884" lon="2.087786"><ele>126.3</ele><time>2026-05-10T08:31:36Z</time></trkpt>
      <trkpt lat="41.427729" lon="2.087520"><ele>124.9</ele><time>2026-05-10T08:31:48Z</time></trkpt>
      <trkpt lat="41.427573" lon="2.087250"><ele>123.9</ele><time>2026-05-10T08:32:00Z</time></trkpt>
      <trkpt lat="41.427416" lon="2.086978"><ele>123.3</ele><time>2026-05-10T08:32:12Z</time></trkpt>
      <trkpt lat="41.427253" lon="2.086704"><ele>122.9</ele><time>2026-05-10T08:32:24Z</time></trkpt>
      <trkpt lat="41.427084" lon="2.086429"><ele>122.8</ele><time>2026-05-10T08:32:36Z</time></trkpt>
      <trkpt lat="41.426905" lon="2.086154"><ele>123.0</ele><time>2026-05-10T08:32:48Z</time></trkpt>
      <trkpt lat="41.426715" lon="2.085881"><ele>123.2</ele><time>2026-05-10T08:33:00Z</time></trkpt>
      <trkpt lat="41.426512" lon="2.085609"><ele>123.6</ele><time>2026-05-10T08:33:12Z</time></trkpt>
      <trkpt lat="41.426294" lon="2.085341"><ele>124.0</ele><time>2026-05-10T08:33:24Z</time></trkpt>
      <trkpt lat="41.426058" lon="2.085077"><ele>124.4</ele><time>2026-05-10T08:33:36Z</time></trkpt>
      <trkpt lat="41.425804" lon="2.084818"><ele>124.7</ele><time>2026-05-10T08:33:48Z</time></trkpt>
      <trkpt lat="41.425530" lon="2.084566"><ele>124.9</ele><time>2026-05-10T08:34:00Z</time></trkpt>
      <trkpt lat="41.425236" lon="2.084322"><ele>124.8</ele><time>2026-05-10T08:34:12Z</time></trkpt>
      <trkpt lat="41.424920" lon="2.084086"><ele>124.5</ele><time>2026-05-10T08:34:24Z</time></trkpt>
      <trkpt lat="41.424582" lon="2.083860"><ele>124.0</ele><time>2026-05-10T08:34:36Z</time></trkpt>
      <trkpt lat="41.424222" lon="2.083645"><ele>123.1</ele><time>2026-05-10T08:34:48Z</time></trkpt>
      <trkpt lat="41.423840" lon="2.083442"><ele>121.8</ele><time>2026-05-10T08:35:00Z</time></trkpt>
      <trkpt lat="41.423437" lon="2.083251"><ele>120.2</ele><time>2026-05-10T08:35:12Z</time></trkpt>
      <trkpt lat="41.423012" lon="2.083074"><ele>118.2</ele><time>2026-05-10T08:35:24Z</time></trkpt>
      <trkpt lat="41.422567" lon="2.082911"><ele>115.9</ele><time>2026-05-10T08:35:36Z</time></trkpt>
      <trkpt lat="41.422104" lon="2.082764"><ele>113.2</ele><time>2026-05-10T08:35:48Z</time></trkpt>
      <trkpt lat="41.421622" lon="2.082632"><ele>110.1</ele><time>2026-05-10T08:36:00Z</time></trkpt>
      <trkpt lat="41.421126" lon="2.082517"><ele>106.7</ele><time>2026-05-10T08:36:12Z</time></trkpt>
      <trkpt lat="41.420615" lon="2.082420"><ele>103.1</ele><time>2026-05-10T08:36:24Z</time></trkpt>
      <trkpt lat="41.420093" lon="2.082339"><ele>99.2</ele><time>2026-05-10T08:36:36Z</time></trkpt>
      <trkpt lat="41.419561" lon="2.082277"><ele>95.1</ele><time>2026-05-10T08:36:48Z</time></trkpt>
      <trkpt lat="41.419022" lon="2.082233"><ele>90.9</ele><time>2026-05-10T08:37:00Z</time></trkpt>
      <trkpt lat="41.418478" lon="2.082207"><ele>86.7</ele><time>2026-05-10T08:37:12Z</time></trkpt>
      <trkpt lat="41.417932" lon="2.082200"><ele>82.4</ele><time>2026-05-10T08:37:24Z</time></trkpt>
      <trkpt lat="41.417386" lon="2.082212"><ele>78.2</ele><time>2026-05-10T08:37:36Z</time></trkpt>
      <trkpt lat="41.416843" lon="2.082242"><ele>74.1</ele><time>2026-05-10T08:37:48Z</time></trkpt>
      <trkpt lat="41.416305" lon="2.082291"><ele>70.1</ele><time>2026-05-10T08:38:00Z</time></trkpt>
      <trkpt lat="41.415776" lon="2.082358"><ele>66.4</ele><time>2026-05-10T08:38:12Z</time></trkpt>
      <trkpt lat="41.415256" lon="2.082442"><ele>63.0</ele><time>2026-05-10T08:38:24Z</time></trkpt>
      <trkpt lat="41.414749" lon="2.082545"><ele>60.0</ele><time>2026-05-10T08:38:36Z</time></trkpt>
      <trkpt lat="41.414256" lon="2.082664"><ele>57.3</ele><time>2026-05-10T08:38:48Z</time></trkpt>
      <trkpt lat="41.413779" lon="2.082799"><ele>55.0</ele><time>2026-05-10T08:39:00Z</time></trkpt>
      <trkpt lat="41.413320" lon="2.082951"><ele>53.2</ele><time>2026-05-10T08:39:12Z</time></trkpt>
      <trkpt lat="41.412880" lon="2.083117"><ele>51.8</ele><time>2026-05-10T08:39:24Z</time></trkpt>
      <trkpt lat="41.412460" lon="2.083298"><ele>50.9</ele><time>2026-05-10T08:39:36Z</time></trkpt>
      <trkpt lat="41.412062" lon="2.083491"><ele>50.5</ele><time>2026-05-10T08:39:48Z</time></trkpt>
      <trkpt lat="41.411686" lon="2.083698"><ele>50.5</ele><time>2026-05-10T08:40:00Z</time></trkpt>
      <trkpt lat="41.411331" lon="2.083916"><ele>50.9</ele><time>2026-05-10T08:40:12Z</time></trkpt>
      <trkpt lat="41.410999" lon="2.084144"><ele>51.7</ele><time>2026-05-10T08:40:24Z</time></trkpt>
      <trkpt lat="41.410688" lon="2.084382"><ele>52.9</ele><time>2026-05-10T08:40:36Z</time></trkpt>
      <trkpt lat="41.410399" lon="2.084629"><ele>54.4</ele><time>2026-05-10T08:40:48Z</time></trkpt>
      <trkpt lat="41.410131" lon="2.084882"><ele>56.2</ele><time>2026-05-10T08:41:00Z</time></trkpt>
      <trkpt lat="41.409881" lon="2.085142"><ele>58.2</ele><time>2026-05-10T08:41:12Z</time></trkpt>
      <trkpt lat="41.409650" lon="2.085407"><ele>60.4</ele><time>2026-05-10T08:41:24Z</time></trkpt>
      <trkpt lat="41.409436" lon="2.085677"><ele>62.6</ele><time>2026-05-10T08:41:36Z</time></trkpt>
      <trkpt lat="41.409236" lon="2.085949"><ele>64.9</ele><time>2026-05-10T08:41:48Z</time></trkpt>
      <trkpt lat="41.409049" lon="2.086223"><ele>67.2</ele><time>2026-05-10T08:42:00Z</time></trkpt>
      <trkpt lat="41.408873" lon="2.086498"><ele>69.4</ele><time>2026-05-10T08:42:12Z</time></trkpt>
      <trkpt lat="41.408706" lon="2.086773"><ele>71.4</ele><time>2026-05-10T08:42:24Z</time></trkpt>
      <trkpt lat="41.408545" lon="2.087046"><ele>73.2</ele><time>2026-05-10T08:42:36Z</time></trkpt>
      <trkpt lat="41.408388" lon="2.087318"><ele>74.8</ele><time>2026-05-10T08:42:48Z</time></trkpt>
      <trkpt lat="41.408232" lon="2.087587"><ele>76.2</ele><time>2026-05-10T08:43:00Z</time></trkpt>
      <trkpt lat="41.408076" lon="2.087852"><ele>77.2</ele><time>2026-05-10T08:43:12Z</time></trkpt>
      <trkpt lat="41.407917" lon="2.088112"><ele>77.8</ele><time>2026-05-10T08:43:24Z</time></trkpt>
      <trkpt lat="41.407753" lon="2.088367"><ele>78.2</ele><time>2026-05-10T08:43:36Z</time></trkpt>
      <trkpt lat="41.407582" lon="2.088616"><ele>78.1</ele><time>2026-05-10T08:43:48Z</time></trkpt>
      <trkpt lat="41.407402" lon="2.088859"><ele>77.7</ele><time>2026-05-10T08:44:00Z</time></trkpt>
      <trkpt lat="41.407211" lon="2.089095"><ele>77.0</ele><time>2026-05-10T08:44:12Z</time></trkpt>
      <trkpt lat="41.407007" lon="2.089324"><ele>76.0</ele><time>2026-05-10T08:44:24Z</time></trkpt>
      <trkpt lat="41.406789" lon="2.089545"><ele>74.7</ele><time>2026-05-10T08:44:36Z</time></trkpt>
      <trkpt lat="41.406556" lon="2.089759"><ele>73.1</ele><time>2026-05-10T08:44:48Z</time></trkpt>
      <trkpt lat="41.406307" lon="2.089964"><ele>71.4</ele><time>2026-05-10T08:45:00Z</time></trkpt>
      <trkpt lat="41.406042" lon="2.090162"><ele>69.5</ele><time>2026-05-10T08:45:12Z</time></trkpt>
      <trkpt lat="41.405760" lon="2.090351"><ele>67.5</ele><time>2026-05-10T08:45:24Z</time></trkpt>
      <trkpt lat="41.405461" lon="2.090533"><ele>65.5</ele><time>2026-05-10T08:45:36Z</time></trkpt>
      <trkpt lat="41.405145" lon="2.090708"><ele>63.5</ele><time>2026-05-10T08:45:48Z</time></trkpt>
      <trkpt lat="41.404814" lon="2.090875"><ele>61.6</ele><time>2026-05-10T08:46:00Z</time></trkpt>
      <trkpt lat="41.404467" lon="2.091036"><ele>59.8</ele><time>2026-05-10T08:46:12Z</time></trkpt>
      <trkpt lat="41.404106" lon="2.091190"><ele>58.3</ele><time>2026-05-10T08:46:24Z</time></trkpt>
      <trkpt lat="41.403732" lon="2.091338"><ele>57.0</ele><time>2026-05-10T08:46:36Z</time></trkpt>
      <trkpt lat="41.403347" lon="2.091481"><ele>56.1</ele><time>2026-05-10T08:46:48Z</time></trkpt>
      <trkpt lat="41.402952" lon="2.091620"><ele>55.5</ele><time>2026-05-10T08:47:00Z</time></trkpt>
      <trkpt lat="41.402549" lon="2.091755"><ele>55.3</ele><time>2026-05-10T08:47:12Z</time></trkpt>
      <trkpt lat="41.402142" lon="2.091886"><ele>55.5</ele><time>2026-05-10T08:47:24Z</time></trkpt>
      <trkpt lat="41.401731" lon="2.092016"><ele>56.2</ele><time>2026-05-10T08:47:36Z</time></trkpt>
      <trkpt lat="41.401319" lon="2.092145"><ele>57.3</ele><time>2026-05-10T08:47:48Z</time></trkpt>
      <trkpt lat="41.400909" lon="2.092273"><ele>58.9</ele><time>2026-05-10T08:48:00Z</time></trkpt>
      <trkpt lat="41.400503" lon="2.092402"><ele>61.0</ele><time>2026-05-10T08:48:12Z</time></trkpt>
      <trkpt lat="41.400104" lon="2.092532"><ele>63.5</ele><time>2026-05-10T08:48:24Z</time></trkpt>
      <trkpt lat="41.399714" lon="2.092665"><ele>66.4</ele><time>2026-05-10T08:48:36Z</time></trkpt>
      <trkpt lat="41.399336" lon="2.092801"><ele>69.7</ele><time>2026-05-10T08:48:48Z</time></trkpt>
      <trkpt lat="41.398971" lon="2.092942"><ele>73.3</ele><time>2026-05-10T08:49:00Z</time></trkpt>
      <trkpt lat="41.398623" lon="2.093089"><ele>77.2</ele><time>2026-05-10T08:49:12Z</time></trkpt>
      <trkpt lat="41.398293" lon="2.093242"><ele>81.3</ele><time>2026-05-10T08:49:24Z</time></trkpt>
      <trkpt lat="41.397983" lon="2.093402"><ele>85.6</ele><time>2026-05-10T08:49:36Z</time></trkpt>
      <trkpt lat="41.397694" lon="2.093571"><ele>90.1</ele><time>2026-05-10T08:49:48Z</time></trkpt>
      <trkpt lat="41.397429" lon="2.093749"><ele>94.6</ele><time>2026-05-10T08:50:00Z</time></trkpt>
      <trkpt lat="41.397188" lon="2.093937"><ele>99.0</ele><time>2026-05-10T08:50:12Z</time></trkpt>
      <trkpt lat="41.396972" lon="2.094135"><ele>103.4</ele><time>2026-05-10T08:50:24Z</time></trkpt>
      <trkpt lat="41.396783" lon="2.094346"><ele>107.7</ele><time>2026-05-10T08:50:36Z</time></trkpt>
      <trkpt lat="41.396619" lon="2.094568"><ele>111.8</ele><time>2026-05-10T08:50:48Z</time></trkpt>
      <trkpt lat="41.396482" lon="2.094803"><ele>115.7</ele><time>2026-05-10T08:51:00Z</time></trkpt>
      <trkpt lat="41.396371" lon="2.095051"><ele>119.2</ele><time>2026-05-10T08:51:12Z</time></trkpt>
      <trkpt lat="41.396285" lon="2.095313"><ele>122.5</ele><time>2026-05-10T08:51:24Z</time></trkpt>
      <trkpt lat="41.396225" lon="2.095589"><ele>125.4</ele><time>2026-05-10T08:51:36Z</time></trkpt>
      <trkpt lat="41.396188" lon="2.095880"><ele>127.9</ele><time>2026-05-10T08:51:48Z</time></trkpt>
      <trkpt lat="41.396174" lon="2.096184"><ele>130.1</ele><time>2026-05-10T08:52:00Z</time></trkpt>
      <trkpt lat="41.396181" lon="2.096504"><ele>131.9</ele><time>2026-05-10T08:52:12Z</time></trkpt>
      <trkpt lat="41.396207" lon="2.096838"><ele>133.3</ele><time>2026-05-10T08:52:24Z</time></trkpt>
      <trkpt lat="41.396251" lon="2.097186"><ele>134.4</ele><time>2026-05-10T08:52:36Z</time></trkpt>
      <trkpt lat="41.396309" lon="2.097549"><ele>135.1</ele><time>2026-05-10T08:52:48Z</time></trkpt>
      <trkpt lat="41.396381" lon="2.097926"><ele>135.6</ele><time>2026-05-10T08:53:00Z</time></trkpt>
      <trkpt lat="41.396464" lon="2.098316"><ele>135.8</ele><time>2026-05-10T08:53:12Z</time></trkpt>
      <trkpt lat="41.396555" lon="2.098720"><ele>135.7</ele><time>2026-05-10T08:53:24Z</time></trkpt>
      <trkpt lat="41.396652" lon="2.099137"><ele>135.6</ele><time>2026-05-10T08:53:36Z</time></trkpt>
      <trkpt lat="41.396753" lon="2.099565"><ele>135.3</ele><time>2026-05-10T08:53:48Z</time></trkpt>
      <trkpt lat="41.396854" lon="2.100005"><ele>135.0</ele><time>2026-05-10T08:54:00Z</time></trkpt>
      <trkpt lat="41.396955" lon="2.100456"><ele>134.8</ele><time>2026-05-10T08:54:12Z</time></trkpt>
      <trkpt lat="41.397052" lon="2.100917"><ele>134.6</ele><time>2026-05-10T08:54:24Z</time></trkpt>
      <trkpt lat="41.397144" lon="2.101387"><ele>134.5</ele><time>2026-05-10T08:54:36Z</time></trkpt>
      <trkpt lat="41.397229" lon="2.101865"><ele>134.7</ele><time>2026-05-10T08:54:48Z</time></trkpt>
      <trkpt lat="41.397304" lon="2.102350"><ele>135.1</ele><time>2026-05-10T08:55:00Z</time></trkpt>
      <trkpt lat="41.397369" lon="2.102841"><ele>135.9</ele><time>2026-05-10T08:55:12Z</time></trkpt>
      <trkpt lat="41.397422" lon="2.103336"><ele>136.9</ele><time>2026-05-10T08:55:24Z</time></trkpt>
      <trkpt lat="41.397461" lon="2.103836"><ele>138.4</ele><time>2026-05-10T08:55:36Z</time></trkpt>
      <trkpt lat="41.397487" lon="2.104338"><ele>140.2</ele><time>2026-05-10T08:55:48Z</time></trkpt>
      <trkpt lat="41.397499" lon="2.104842"><ele>142.4</ele><time>2026-05-10T08:56:00Z</time></trkpt>
      <trkpt lat="41.397497" lon="2.105347"><ele>145.1</ele><time>2026-05-10T08:56:12Z</time></trkpt>
      <trkpt lat="41.397479" lon="2.105850"><ele>148.2</ele><time>2026-05-10T08:56:24Z</time></trkpt>
      <trkpt lat="41.397448" lon="2.106352"><ele>151.7</ele><time>2026-05-10T08:56:36Z</time></trkpt>
      <trkpt lat="41.397403" lon="2.106850"><ele>155.6</ele><time>2026-05-10T08:56:48Z</time></trkpt>
      <trkpt lat="41.397346" lon="2.107344"><ele>159.8</ele><time>2026-05-10T08:57:00Z</time></trkpt>
      <trkpt lat="41.397277" lon="2.107833"><ele>164.3</ele><time>2026-05-10T08:57:12Z</time></trkpt>
      <trkpt lat="41.397198" lon="2.108315"><ele>169.1</ele><time>2026-05-10T08:57:24Z</time></trkpt>
      <trkpt lat="41.397110" lon="2.108790"><ele>174.2</ele><time>2026-05-10T08:57:36Z</time></trkpt>
      <trkpt lat="41.397016" lon="2.109257"><ele>179.4</ele><time>2026-05-10T08:57:48Z</time></trkpt>
      <trkpt lat="41.396917" lon="2.109714"><ele>184.7</ele><time>2026-05-10T08:58:00Z</time></trkpt>
      <trkpt lat="41.396816" lon="2.110161"><ele>190.0</ele><time>2026-05-10T08:58:12Z</time></trkpt>
      <trkpt lat="41.396715" lon="2.110597"><ele>195.3</ele><time>2026-05-10T08:58:24Z</time></trkpt>
      <trkpt lat="41.396615" lon="2.111021"><ele>200.5</ele><time>2026-05-10T08:58:36Z</time></trkpt>
      <trkpt lat="41.396520" lon="2.111433"><ele>205.6</ele><time>2026-05-10T08:58:48Z</time></trkpt>
      <trkpt lat="41.396432" lon="2.111832"><ele>210.5</ele><time>2026-05-10T08:59:00Z</time></trkpt>
      <trkpt lat="41.396353" lon="2.112217"><ele>215.1</ele><time>2026-05-10T08:59:12Z</time></trkpt>
      <trkpt lat="41.396286" lon="2.112589"><ele>219.4</ele><time>2026-05-10T08:59:24Z</time></trkpt>
      <trkpt lat="41.396232" lon="2.112946"><ele>223.4</ele><time>2026-05-10T08:59:36Z</time></trkpt>
      <trkpt lat="41.396195" lon="2.113289"><ele>227.0</ele><time>2026-05-10T08:59:48Z</time></trkpt>
  </trkseg></trk>
</gpx>